GLOBALSTAR M057 [-]     
1 25943U 99058A   24020.96351214 -.00000121  00000+0 -25235-3 0  9998
2 25943  52.0015   4.6656 0002791  32.9868 327.1155 12.24778703104044
GLOBALSTAR M059 [-]     
1 25944U 99058B   24020.56569119 -.00000078  00000+0  10743-3 0  9998
2 25944  52.0002 156.6553 0001296  98.0292 343.2240 11.99960285512381
GLOBALSTAR M056 [-]     
1 25945U 99058C   24020.80653448 -.00000069  00000+0  21232-3 0  9990
2 25945  51.9943 171.1507 0000946 152.8221 355.3047 12.04775142100742
GLOBALSTAR M031 [-]     
1 25946U 99058D   24020.70245576  .00000015  00000+0  10704-2 0  9990
2 25946  51.9966  94.4852 0001699 192.0249 342.1300 12.16001247102075
GLOBALSTAR M039 [-]     
1 25961U 99062A   24020.90979647 -.00000054  00000+0  27747-3 0  9997
2 25961  51.9862  31.9957 0002572 290.4666  69.5924 12.62279566115399
GLOBALSTAR M034 [-]     
1 25962U 99062B   24020.97434602 -.00000031  00000+0  80143-3 0  9996
2 25962  51.9861 265.4172 0014225 148.3429 312.0788 11.79423159 77834
GLOBALSTAR M029 [-]     
1 25963U 99062C   24020.37765569 -.00000072  00000+0  18005-3 0  9993
2 25963  51.9818  45.6404 0002893 184.7689 277.1303 11.99872765107441
GLOBALSTAR M061 [-]     
1 25964U 99062D   24020.59041534 -.00000012  00000+0  11138-2 0  9990
2 25964  51.9798  83.6417 0006330  84.9164  63.9285 11.76757801 60710
